[Satellite]
VERSION=1.1
NAME=SBS-6
NICKNAME=SBS-6
TLE1=1 20872U 90091A   11057.42731886 -.00000238  00000-0  10000-3 0  3005
TLE2=2 20872   3.3034  72.4843 0008404 323.6120  36.6014  0.98992960 62915
